NUSAT-1 (FRESCO)        
1 41557U 16033B   22235.90064095  .00010639  00000+0  30445-3 0  9999
2 41557  97.3894 333.7835 0011590 132.3468 321.8697 15.36067995347730
BEESAT-4                
1 41619U 16040W   22235.39542503  .00006666  00000+0  21359-3 0  9993
2 41619  97.2120 284.2878 0007944 227.5522 132.5050 15.32659531330970
CAS-2T & KS-1Q          
1 41847U 16066G   22235.45905558  .00000271  00000+0  50634-4 0  9999
2 41847  98.5463 300.0406 0363597   9.6334 351.1585 14.38698772303988
NAYIF-1 (EO-88)         
1 42017U 17008BX  22235.16381815  .00007735  00000+0  21974-3 0  9994
2 42017  97.2648 300.3758 0004733  26.4173 333.7311 15.36443386307316
ZHUHAI-1 02 (CAS-4B)    
1 42759U 17034B   22235.96952872  .00003175  00000+0  19272-3 0  9993
2 42759  43.0186 320.4416 0009918 346.0915 184.5204 15.12308615286570
ZHUHAI-1 01 (CAS-4A)    
1 42761U 17034D   22235.73109565  .00002817  00000+0  17207-3 0  9992
2 42761  43.0188 320.4951 0010123 347.5082 149.6162 15.12390146286542
MAX VALIER SAT          
1 42778U 17036P   22235.34091179  .00003970  00000+0  14816-3 0  9994
2 42778  97.2010 274.1652 0012585  90.4126 269.8556 15.27887732287119
RADFXSAT (FOX-1B)       
1 43017U 17073E   22235.43471609  .00002112  00000+0  16248-3 0  9990
2 43017  97.6662 126.8769 0246409 328.7892  29.8883 14.81851230257034
FOX-1D (AO-92)          
1 43137U 18004AC  22235.46250178  .00004279  00000+0  14780-3 0  9992
2 43137  97.3654 310.0514 0008971 120.1392 240.0739 15.30448775256597
DIWATA-2B               
1 43678U 18084H   22235.77324719  .00000343  00000+0  39325-4 0  9998
2 43678  97.9795   9.8637 0011190  66.1760 294.0624 14.92263208207897
ES'HAIL 2               
1 43700U 18090A   22235.81199360  .00000140  00000+0  00000+0 0  9996
2 43700   0.0233 233.0406 0002001 323.3947  93.7425  1.00273413 13708
FOX-1CLIFF (AO-95)      
1 43770U 18099N   22235.45135897  .00001465  00000+0  13302-3 0  9991
2 43770  97.6160 300.0566 0015095  55.5378 304.7267 14.96695936203030
ITASAT 1                
1 43786U 18099AE  22235.84000075  .00000791  00000+0  73922-4 0  9996
2 43786  97.6187 301.3897 0015586  46.3119 313.9391 14.96807186203136
JY1SAT (JO-97)          
1 43803U 18099AX  22235.83417091  .00000760  00000+0  70209-4 0  9996
2 43803  97.6151 301.1601 0015351  44.8122 315.4337 14.97362555203151
UWE-4                   
1 43880U 18111E   22235.25093844  .00000620  00000+0  56690-4 0  9991
2 43880  97.6614 140.3915 0013016  93.8543 266.4168 14.98446436199702
NEXUS (FO-99)           
1 43937U 19003F   22235.08037840  .00006812  00000+0  22149-3 0  9990
2 43937  97.1271 265.8847 0017830 274.9228  84.9978 15.32054081200172
PSAT2 (NO-104)          
1 44354U 19036R   22235.85381890  .00043064 -57706-5  33606-3 0  9994
2 44354  28.5242  68.7487 0208970  14.4096 346.2354 15.46032713175108
JAISAT-1                
1 44419U 19038F   22235.88124352  .00003772  00000+0  18730-3 0  9990
2 44419  97.6404 206.6080 0016900 256.5365 103.3985 15.18198778173289
DUCHIFAT-3              
1 44854U 19089C   22235.81863691  .00002715  00000+0  21222-3 0  9994
2 44854  36.9656  60.8621 0008177  37.4193 340.7568 15.01437542148069
CAS-6 (TIANQIN 1)       
1 44881U 19093C   22235.90440275  .00000399  00000+0  57210-4 0  9991
2 44881  97.8905 314.1404 0014374 332.1662  27.8763 14.81791547144766
RS-44 & BREEZE-KM R/B   
1 44909U 19096E   22235.89702034  .00000003  00000+0 -36525-4 0  9996
2 44909  82.5239 185.4723 0217625 161.7561 199.1505 12.79714436124132
ORBITAL FACTORY 2 (OF-2)
1 45113U 19071C   22235.03884175  .00017095  00000+0  32410-3 0  9996
2 45113  51.6373  91.0206 0008908  63.4365 296.7535 15.48400716143686
HUSKYSAT-1 (HO-107)     
1 45119U 19071J   22235.02752311  .00014988  00000+0  29846-3 0  9994
2 45119  51.6375  91.6641 0008909  59.2108 300.9756 15.47089001143662
BY70-2                  
1 45857U 20042B   22235.82476776  .00005079  00000+0  66975-3 0  9994
2 45857  97.9529 312.0472 0009025 254.3535 105.6658 14.80493524115428
SALSAT                  
1 46495U 20068K   22235.59743500  .00001398  00000+0  10341-3 0  9993
2 46495  97.7311 176.9377 0017614  53.1788 307.1050 15.04736275104280
BY70-3                  
1 46839U 20079N   22235.81887249  .00019771  00000+0  42700-3 0  9999
2 46839  97.1932 307.1298 0006743  91.8518  43.1401 15.44536397100635
RADFXSAT-2 (AO-109)     
1 47311U 21002C   22235.37801556  .00003978  00000+0  16187-3 0  9992
2 47311  60.6856 110.1456 0028402  25.6884 334.5609 15.26189345 88679
UVSQ-SAT                
1 47438U 21006AB  22235.40648343  .00002472  00000+0  13070-3 0  9999
2 47438  97.4327 293.0511 0012764  49.1823 311.0515 15.16331662 87429
DIY-1 (ARDUIQUBE)       
1 47963U 21022AH  22235.48047029  .00007052  00000+0  37826-3 0  9996
2 47963  97.5247 136.1209 0014070 260.2672  99.6971 15.15190344 77091
XW-3 (CAS-9)            
1 50466U 21131B   22235.85051171 -.00000003  00000+0  13652-4 0  9995
2 50466  98.5781 313.0650 0003475 317.9684  42.1236 14.38516737 34602
TEVEL-3                 
1 50988U 22002E   22235.81187178  .00005609  00000+0  30234-3 0  9995
2 50988  97.4769 301.6864 0009518 181.9669 272.3435 15.15145822 33618
TEVEL-8                 
1 50989U 22002F   22235.76314219  .00005652  00000+0  30510-3 0  9993
2 50989  97.4788 301.6631 0009506 180.8948 327.3001 15.15092717 33600
TEVEL-5                 
1 50998U 22002Q   22235.81142052  .00005775  00000+0  30682-3 0  9999
2 50998  97.4758 301.8175 0011147 178.6725 276.7549 15.15638116 33629
TEVEL-6                 
1 50999U 22002R   22235.81081494  .00005772  00000+0  30661-3 0  9996
2 50999  97.4756 301.8143 0011092 178.1325 276.9185 15.15642507 33620
TEVEL-1                 
1 51013U 22002AF  22235.75932978  .00005643  00000+0  30440-3 0  9991
2 51013  97.4766 301.6131 0009486 182.5738 327.3064 15.15119599 33600
TEVEL-7                 
1 51062U 22002CG  22235.76483738  .00005682  00000+0  30677-3 0  9996
2 51062  97.4771 301.6503 0009463 181.5409 326.5691 15.15084686 33607
TEVEL-4                 
1 51063U 22002CH  22235.76566442  .00005698  00000+0  30769-3 0  9990
2 51063  97.4774 301.6475 0009553 181.0623 326.9685 15.15075639 33607
TEVEL-2                 
1 51069U 22002CP  22235.75709950  .00005628  00000+0  30346-3 0  9992
2 51069  97.4769 301.6175 0009616 181.8190 326.6411 15.15137623 33607
RS3S                    
1 53308U 98067TT  22235.66516765  .00018917  00000+0  31249-3 0  9992
2 53308  51.6425   2.0523 0001683 133.8959 226.2170 15.52271296  5197
RS1S                    
1 53309U 98067TU  22235.66434884  .00019977  00000+0  32877-3 0  9999
2 53309  51.6423   2.0459 0002126 160.0253 200.0820 15.52336257  5142
RS5S                    
1 53310U 98067TV  22235.66469491  .00018579  00000+0  30716-3 0  9990
2 53310  51.6428   2.0496 0001865 161.7620 198.3437 15.52261328  5177
RS6S                    
1 53311U 98067TW  22235.66255246  .00019401  00000+0  31801-3 0  9993
2 53311  51.6421   2.0337 0001460 119.4159 240.6977 15.52468988  5196
RS9S                    
1 53312U 98067TX  22235.66322675  .00019597  00000+0  32208-3 0  9993
2 53312  51.6426   2.0385 0002306 164.5452 195.5608 15.52387597  5131
RS12S                   
1 53313U 98067TY  22235.66228466  .00018713  00000+0  30745-3 0  9990
2 53313  51.6425   2.0330 0001850 172.4714 187.6304 15.52431173  5183
RS4S                    
1 53321U 98067TZ  22235.66563475  .00018949  00000+0  31307-3 0  9997
2 53321  51.6429   2.0568 0001723 145.9686 214.1415 15.52264991  5182
RS29S (SXC3-2110 CYCLO*)
1 53373U 22096D   22235.82349063  .00006955  00000+0  28496-3 0  9995
2 53373  97.4342 137.1804 0003211 106.3792 327.1412 15.24591589  2215
RS32S (SXC3-212 MONITO*)
1 53374U 22096E   22235.82268751  .00006996  00000+0  28571-3 0  9999
2 53374  97.4344 137.1839 0003598 104.4695 330.1214 15.24698058  2218
RS34S (SXC3-218 KUZBAS*)
1 53375U 22096F   22235.82250637  .00005750  00000+0  23537-3 0  9998
2 53375  97.4347 137.1845 0003392 100.4893 334.0788 15.24699490  2217
RS23S (SXC3-21 UTMN)    
1 53376U 22096G   22235.81800359  .00006364  00000+0  25984-3 0  9990
2 53376  97.4346 137.1787 0003520  99.1661 312.5585 15.24742958  2216
RS28S (SXC3-214 MIET-A*)
1 53377U 22096H   22235.81601385  .00006106  00000+0  24925-3 0  9997
2 53377  97.4352 137.1782 0003479  96.2465 306.0950 15.24767851  2215
RS26S (KAI-1)           
1 53378U 22096J   22235.82123368  .00005356  00000+0  21882-3 0  9994
2 53378  97.4350 137.1845 0003497  95.0860 337.8845 15.24796669  2214
RS19S (SXC3-219 ISOI)   
1 53381U 22096M   22235.81976760  .00005705  00000+0  23002-3 0  9993
2 53381  97.4342 137.1915 0005707  54.8741  31.0508 15.25205186  2213
RS21S (CUBESX-HSE-2)    
1 53383U 22096P   22235.88092059  .00005831  00000+0  23457-3 0  9996
2 53383  97.4353 137.2519 0006057  52.0862  12.6623 15.25268877  2221
RS30S (SXC3-217 SIREN)  
1 53384U 22096Q   22235.88084672  .00005908  00000+0  23751-3 0  9991
2 53384  97.4349 137.2543 0005895  53.6472  11.8801 15.25289583  2223
RS20S (GEOSCAN-EDELVEIS)
1 53385U 22096R   22235.87919313  .00006801  00000+0  27156-3 0  9996
2 53385  97.4348 137.2573 0006601  51.8527  12.3979 15.25454007  2253
RS33S (SXC3-215 VIZARD) 
1 53386U 22096S   22235.81575574  .00008366  00000+0  33099-3 0  9999
2 53386  97.4344 137.1976 0007086  53.6189  33.6421 15.25689774  2235
CUTE-1 (CO-55)          
1 27844U 03031E   22235.88259609  .00000121  00000+0  73897-4 0  9994
2 27844  98.6800 242.5537 0008623 266.8982  93.1210 14.22482811993455
CUBESAT XI-IV (CO-57)   
1 27848U 03031J   22235.86666593  .00000095  00000+0  62956-4 0  9994
2 27848  98.6845 243.0433 0008550 283.0994  76.9229 14.22035900993263
CUBESAT XI-V            
1 28895U 05043F   22235.34399486  .00000401  00000+0  84672-4 0  9999
2 28895  98.1148   5.7254 0015341 292.3913  67.5664 14.64435302897203
